[{"OBJECT_NAME":"SCS-01 E","OBJECT_ID":"2025-100E","EPOCH":"2026-03-09T19:37:36.788160","MEAN_MOTION":15.18808974,"ECCENTRICITY":0.00041864,"INCLINATION":97.4267,"RA_OF_ASC_NODE":144.0575,"ARG_OF_PERICENTER":16.3517,"MEAN_ANOMALY":343.7852,"EPHEMERIS_TYPE":0,"CLASSIFICATION_TYPE":"U","NORAD_CAT_ID":63986,"ELEMENT_SET_NO":999,"REV_AT_EPOCH":4552,"BSTAR":0.00039415521,"MEAN_MOTION_DOT":8.14e-5,"MEAN_MOTION_DDOT":0},{"OBJECT_NAME":"STARLINK-35685","OBJECT_ID":"2025-299AC","EPOCH":"2026-03-09T22:00:01.999584","MEAN_MOTION":15.36668663,"ECCENTRICITY":0.00013152,"INCLINATION":43.0009,"RA_OF_ASC_NODE":167.5493,"ARG_OF_PERICENTER":263.612,"MEAN_ANOMALY":69.38,"EPHEMERIS_TYPE":0,"CLASSIFICATION_TYPE":"U","NORAD_CAT_ID":67128,"ELEMENT_SET_NO":999,"REV_AT_EPOCH":589,"BSTAR":-0.062393317,"MEAN_MOTION_DOT":-0.02027844,"MEAN_MOTION_DDOT":0}]
